[{"OBJECT_NAME":"METEOR-M 2","OBJECT_ID":"2014-037A","EPOCH":"2026-03-09T23:09:30.537792","MEAN_MOTION":14.21428734,"ECCENTRICITY":0.00053128,"INCLINATION":98.5035,"RA_OF_ASC_NODE":48.2672,"ARG_OF_PERICENTER":336.7967,"MEAN_ANOMALY":23.2971,"EPHEMERIS_TYPE":0,"CLASSIFICATION_TYPE":"U","NORAD_CAT_ID":40069,"ELEMENT_SET_NO":999,"REV_AT_EPOCH":60522,"BSTAR":2.6040138e-5,"MEAN_MOTION_DOT":1.5e-7,"MEAN_MOTION_DDOT":0},{"OBJECT_NAME":"SENTINEL-5P","OBJECT_ID":"2017-064A","EPOCH":"2026-03-09T19:35:06.853056","MEAN_MOTION":14.19549302,"ECCENTRICITY":0.00010631,"INCLINATION":98.7881,"RA_OF_ASC_NODE":11.6741,"ARG_OF_PERICENTER":80.585,"MEAN_ANOMALY":279.5446,"EPHEMERIS_TYPE":0,"CLASSIFICATION_TYPE":"U","NORAD_CAT_ID":42969,"ELEMENT_SET_NO":999,"REV_AT_EPOCH":43546,"BSTAR":7.6086876e-5,"MEAN_MOTION_DOT":1.16e-6,"MEAN_MOTION_DDOT":0}]
